0 NADEZHDA 3
1 21152U 91019A   13282.18553553  .00000062  00000-0  49265-4 0  1745
2 21152 082.9258 139.9759 0042112 025.6389 113.6591 13.74112349131953
0 NADEZHDA 3
1 21152U 91019A   13283.33312771  .00000074  00000-0  62466-4 0  1750
2 21152 082.9256 139.1252 0042029 022.4554 030.5620 13.74112336132112
0 NADEZHDA 3
1 21152U 91019A   13285.73952220  .00000081  00000-0  69276-4 0  1771
2 21152 082.9251 137.3413 0041867 015.8134 054.4672 13.74112515132442
0 NADEZHDA 3
1 21152U 91019A   13286.75413596  .00000066  00000-0  53529-4 0  1780
2 21152 082.9249 136.5891 0041803 012.9837 033.5672 13.74112670132583
0 NADEZHDA 3
1 21152U 91019A   13287.77570821  .00000070  00000-0  58498-4 0  1794
2 21152 082.9247 135.8317 0041734 010.1499 047.0760 13.74112959132727
0 NADEZHDA 3
1 21152U 91019A   13289.10531929  .00000054  00000-0  41165-4 0  1806
2 21152 082.9245 134.8458 0041619 006.4144 144.4370 13.74113250132901
0 NADEZHDA 3
1 21152U 91019A   13290.26380073  .00000039  00000-0  25495-4 0  1819
2 21152 082.9244 133.9869 0041561 003.2271 115.1824 13.74113338133062
0 NADEZHDA 3
1 21152U 91019A   13291.78146351  .00000045  00000-0  31762-4 0  1828
2 21152 082.9245 132.8616 0041445 358.9165 062.8543 13.74113506133270
0 NADEZHDA 3
1 21152U 91019A   13293.10273365  .00000059  00000-0  46604-4 0  1839
2 21152 082.9245 131.8820 0041366 355.1951 118.9668 13.74113659133450
0 NADEZHDA 3
1 21152U 91019A   13294.12345271  .00000058  00000-0  45649-4 0  1846
2 21152 082.9245 131.1252 0041311 352.3240 128.2982 13.74113647133597
0 NADEZHDA 3
1 21152U 91019A   13295.49474028  .00000077  00000-0  65987-4 0  1859
2 21152 082.9245 130.1085 0041225 348.4435 071.8586 13.74113728133780
